OBJECT_NAME,OBJECT_ID,EPOCH,MEAN_MOTION,ECCENTRICITY,INCLINATION,RA_OF_ASC_NODE,ARG_OF_PERICENTER,MEAN_ANOMALY,EPHEMERIS_TYPE,CLASSIFICATION_TYPE,NORAD_CAT_ID,ELEMENT_SET_NO,REV_AT_EPOCH,BSTAR,MEAN_MOTION_DOT,MEAN_MOTION_DDOT,RMS,DATA_SOURCE
STARLINK-30422,2023-138U,2025-10-07T19:00:42.000019,15.02531802,0.0001205,43.0031,346.5352,273.832,323.2476,0,C,57826,280,1,0.00049225,6.6718e-05,0,0.26,SpaceX-E
STARLINK-30402,2023-138V,2025-10-07T19:06:41.999962,15.02558634,0.0001365,43.0032,346.5708,264.8899,330.712,0,C,57827,280,1,-0.0017677,-0.00023956,0,0.463,SpaceX-E
STARLINK-30411,2023-138W,2025-10-07T19:04:42.000038,15.02690186,0.0001296,43.0033,346.5885,268.6042,307.4537,0,C,57828,280,1,-0.010699,-0.0014505,0,1.043,SpaceX-E
STARLINK-30418,2023-138X,2025-10-07T19:07:42.000010,15.02550401,0.0001385,43.0032,346.4231,262.3595,37.1012,0,C,57829,280,1,-0.0010613,-0.00014383,0,0.393,SpaceX-E
STARLINK-30285,2023-141A,2025-10-07T19:04:42.000038,15.30345555,0.0001169,53.157,274.3262,83.5019,100.1989,0,C,57840,280,1,-0.0041424,-0.0012302,0,0.957,SpaceX-E
STARLINK-30410,2023-141B,2025-10-07T19:02:42.000029,15.30203008,0.0001349,53.1588,274.283,88.3961,18.0411,0,C,57841,280,1,-0.00041661,-0.00012361,0,0.363,SpaceX-E
STARLINK-30435,2023-141C,2025-10-07T19:08:41.999971,15.30196758,0.0001303,53.1591,274.3257,90.2824,21.6377,0,C,57842,280,1,-0.00025239,-7.4879e-05,0,0.3,SpaceX-E
STARLINK-30423,2023-141D,2025-10-07T19:08:41.999971,15.30190558,0.0001401,53.1598,274.3271,87.5918,1.1135,0,C,57843,280,1,-0.00011166,-3.3127e-05,0,0.281,SpaceX-E
STARLINK-30292,2023-141E,2025-10-07T18:59:41.999971,15.30193215,0.000136,53.1596,273.9418,90.7045,283.268,0,C,57844,280,1,-0.0002634,-7.8137e-05,0,0.289,SpaceX-E
STARLINK-30416,2023-141H,2025-10-07T19:08:41.999971,15.30198799,0.000134,53.1579,274.3497,89.3172,74.847,0,C,57847,280,1,-0.00038103,-0.00011304,0,0.238,SpaceX-E
STARLINK-30426,2023-141J,2025-10-07T19:07:42.000010,15.30200873,0.0001347,53.1598,274.3297,90.0333,337.4237,0,C,57848,280,1,-0.00038333,-0.00011373,0,0.34,SpaceX-E
STARLINK-30430,2023-141K,2025-10-07T19:03:41.999990,15.30197736,0.0001426,53.1575,274.3725,89.2555,73.1798,0,C,57849,280,1,-0.00020844,-6.1845e-05,0,0.407,SpaceX-E
STARLINK-30425,2023-141L,2025-10-07T19:08:41.999971,15.30204458,0.0001328,53.1595,274.3669,86.0226,327.7929,0,C,57850,280,1,-0.00021297,-6.3201e-05,0,0.542,SpaceX-E
STARLINK-30405,2023-141M,2025-10-07T19:08:41.999971,15.30193986,0.0001386,53.1583,274.3704,88.2811,58.4459,0,C,57851,280,1,-0.00019715,-5.849e-05,0,0.316,SpaceX-E
STARLINK-30431,2023-141N,2025-10-07T19:07:42.000010,15.30206647,0.0001334,53.1592,273.9688,88.0955,287.4095,0,C,57852,280,1,-0.0004519,-0.00013409,0,0.529,SpaceX-E
STARLINK-30404,2023-141P,2025-10-07T19:05:42.000000,15.30197663,0.0001377,53.1596,273.9277,89.6947,301.4379,0,C,57853,280,1,-0.00039037,-0.0001158,0,0.325,SpaceX-E
STARLINK-30412,2023-141Q,2025-10-07T19:00:42.000019,15.30199337,0.0001294,53.1583,274.0595,88.2767,225.5527,0,C,57854,280,1,-0.00035418,-0.00010508,0,0.346,SpaceX-E
STARLINK-30392,2023-141R,2025-10-07T19:10:41.999981,15.30201618,0.0001378,53.1588,273.9918,89.5986,279.9356,0,C,57855,280,1,-0.00030698,-9.1086e-05,0,0.373,SpaceX-E
STARLINK-30291,2023-141S,2025-10-07T19:05:42.000000,15.30208467,0.0001373,53.1568,274.2602,89.805,132.6334,0,C,57856,280,1,-0.00043488,-0.00012905,0,0.575,SpaceX-E
STARLINK-30424,2023-141T,2025-10-07T19:02:42.000029,15.30196028,0.0001462,53.1579,248.3129,95.2994,110.4933,0,C,57857,280,1,-0.00038989,-0.00011566,0,0.279,SpaceX-E
STARLINK-30290,2023-141U,2025-10-07T19:10:41.999981,15.30198312,0.0001274,53.1577,274.0951,92.7043,224.4888,0,C,57858,280,1,-0.00016708,-4.9575e-05,0,0.416,SpaceX-E
STARLINK-30414,2023-141V,2025-10-07T19:06:41.999962,15.30186614,0.0001264,53.1579,274.0725,87.6852,231.6721,0,C,57859,280,1,-0.00010625,-3.1517e-05,0,0.289,SpaceX-E
STARLINK-30272,2023-141W,2025-10-07T19:02:42.000029,15.30210426,0.0001306,53.1567,274.3027,91.4566,102.059,0,C,57860,280,1,-0.00064853,-0.00019242,0,0.333,SpaceX-E
STARLINK-30432,2023-144A,2025-10-07T19:03:41.999990,15.02519211,0.0001464,43.0039,38.6978,269.8801,181.9486,0,C,57864,280,1,0.00096448,0.0001307,0,0.244,SpaceX-E
STARLINK-30427,2023-144B,2025-10-07T19:29:42.000029,15.02621837,0.0001504,43.0037,38.5572,272.2938,295.7347,0,C,57865,280,1,0.0010945,0.00014873,0,0.252,SpaceX-E
STARLINK-30393,2023-144C,2025-10-07T19:04:42.000038,15.02544475,0.0001247,43.0038,37.9191,276.3365,143.7342,0,C,57866,280,1,0.0010103,0.000137,0,0.244,SpaceX-E
STARLINK-30439,2023-144D,2025-10-07T19:02:42.000029,15.02531281,0.0001722,43.0037,38.6164,269.7141,214.3921,0,C,57867,280,1,0.0010956,0.00014852,0,0.253,SpaceX-E
STARLINK-30442,2023-144E,2025-10-07T19:05:42.000000,15.02659254,0.0001389,43.004,38.5202,274.2448,239.2201,0,C,57868,280,1,-0.0084236,-0.0011419,0,1.162,SpaceX-E
STARLINK-30441,2023-144F,2025-10-07T19:02:42.000029,15.02528263,0.0001384,43.0039,38.6925,267.9879,162.0628,0,C,57869,280,1,0.0010521,0.00014262,0,0.248,SpaceX-E
