STARLINK-30422          
1 57826C 23138U   25280.79215278  .00006672  00000+0  49225-3 0  2801
2 57826  43.0031 346.5352 0001205 273.8320 323.2476 15.02531802    17
STARLINK-30402          
1 57827C 23138V   25280.79631944 -.00023956  00000+0 -17677-2 0  2805
2 57827  43.0032 346.5708 0001365 264.8899 330.7120 15.02558634    13
STARLINK-30411          
1 57828C 23138W   25280.79493056 -.00145050  00000+0 -10699-1 0  2802
2 57828  43.0033 346.5885 0001296 268.6042 307.4537 15.02690186    18
STARLINK-30418          
1 57829C 23138X   25280.79701389 -.00014383  00000+0 -10613-2 0  2805
2 57829  43.0032 346.4231 0001385 262.3595  37.1012 15.02550401    15
STARLINK-30285          
1 57840C 23141A   25280.79493056 -.00123020  00000+0 -41424-2 0  2804
2 57840  53.1570 274.3262 0001169  83.5019 100.1989 15.30345555    11
STARLINK-30410          
1 57841C 23141B   25280.79354167 -.00012361  00000+0 -41661-3 0  2803
2 57841  53.1588 274.2830 0001349  88.3961  18.0411 15.30203008    13
STARLINK-30435          
1 57842C 23141C   25280.79770833 -.00007488  00000+0 -25239-3 0  2803
2 57842  53.1591 274.3257 0001303  90.2824  21.6377 15.30196758    16
STARLINK-30423          
1 57843C 23141D   25280.79770833 -.00003313  00000+0 -11166-3 0  2801
2 57843  53.1598 274.3271 0001401  87.5918   1.1135 15.30190558    19
STARLINK-30292          
1 57844C 23141E   25280.79145833 -.00007814  00000+0 -26340-3 0  2808
2 57844  53.1596 273.9418 0001360  90.7045 283.2680 15.30193215    18
STARLINK-30416          
1 57847C 23141H   25280.79770833 -.00011304  00000+0 -38103-3 0  2804
2 57847  53.1579 274.3497 0001340  89.3172  74.8470 15.30198799    10
STARLINK-30426          
1 57848C 23141J   25280.79701389 -.00011373  00000+0 -38333-3 0  2806
2 57848  53.1598 274.3297 0001347  90.0333 337.4237 15.30200873    11
STARLINK-30430          
1 57849C 23141K   25280.79423611 -.00006185  00000+0 -20844-3 0  2809
2 57849  53.1575 274.3725 0001426  89.2555  73.1798 15.30197736    16
STARLINK-30425          
1 57850C 23141L   25280.79770833 -.00006320  00000+0 -21297-3 0  2806
2 57850  53.1595 274.3669 0001328  86.0226 327.7929 15.30204458    12
STARLINK-30405          
1 57851C 23141M   25280.79770833 -.00005849  00000+0 -19715-3 0  2804
2 57851  53.1583 274.3704 0001386  88.2811  58.4459 15.30193986    17
STARLINK-30431          
1 57852C 23141N   25280.79701389 -.00013409  00000+0 -45190-3 0  2802
2 57852  53.1592 273.9688 0001334  88.0955 287.4095 15.30206647    13
STARLINK-30404          
1 57853C 23141P   25280.79562500 -.00011580  00000+0 -39037-3 0  2804
2 57853  53.1596 273.9277 0001377  89.6947 301.4379 15.30197663    16
STARLINK-30412          
1 57854C 23141Q   25280.79215278 -.00010508  00000+0 -35418-3 0  2800
2 57854  53.1583 274.0595 0001294  88.2767 225.5527 15.30199337    12
STARLINK-30392          
1 57855C 23141R   25280.79909722 -.00009109  00000+0 -30698-3 0  2805
2 57855  53.1588 273.9918 0001378  89.5986 279.9356 15.30201618    14
STARLINK-30291          
1 57856C 23141S   25280.79562500 -.00012905  00000+0 -43488-3 0  2804
2 57856  53.1568 274.2602 0001373  89.8050 132.6334 15.30208467    17
STARLINK-30424          
1 57857C 23141T   25280.79354167 -.00011566  00000+0 -38989-3 0  2805
2 57857  53.1579 248.3129 0001462  95.2994 110.4933 15.30196028    11
STARLINK-30290          
1 57858C 23141U   25280.79909722 -.00004958  00000+0 -16708-3 0  2801
2 57858  53.1577 274.0951 0001274  92.7043 224.4888 15.30198312    10
STARLINK-30414          
1 57859C 23141V   25280.79631944 -.00003152  00000+0 -10625-3 0  2807
2 57859  53.1579 274.0725 0001264  87.6852 231.6721 15.30186614    10
STARLINK-30272          
1 57860C 23141W   25280.79354167 -.00019242  00000+0 -64853-3 0  2807
2 57860  53.1567 274.3027 0001306  91.4566 102.0590 15.30210426    13
STARLINK-30432          
1 57864C 23144A   25280.79423611  .00013070  00000+0  96448-3 0  2801
2 57864  43.0039  38.6978 0001464 269.8801 181.9486 15.02519211    16
STARLINK-30427          
1 57865C 23144B   25280.81229167  .00014873  00000+0  10945-2 0  2804
2 57865  43.0037  38.5572 0001504 272.2938 295.7347 15.02621837    16
STARLINK-30393          
1 57866C 23144C   25280.79493056  .00013700  00000+0  10103-2 0  2806
2 57866  43.0038  37.9191 0001247 276.3365 143.7342 15.02544475    10
STARLINK-30439          
1 57867C 23144D   25280.79354167  .00014852  00000+0  10956-2 0  2801
2 57867  43.0037  38.6164 0001722 269.7141 214.3921 15.02531281    13
STARLINK-30442          
1 57868C 23144E   25280.79562500 -.00114190  00000+0 -84236-2 0  2804
2 57868  43.0040  38.5202 0001389 274.2448 239.2201 15.02659254    18
STARLINK-30441          
1 57869C 23144F   25280.79354167  .00014262  00000+0  10521-2 0  2806
2 57869  43.0039  38.6925 0001384 267.9879 162.0628 15.02528263    13
